[{"OBJECT_NAME":"STARLINK-1812","OBJECT_ID":"2020-088E","EPOCH":"2026-03-09T21:44:17.393568","MEAN_MOTION":15.15107348,"ECCENTRICITY":0.00027492,"INCLINATION":53.0793,"RA_OF_ASC_NODE":298.6686,"ARG_OF_PERICENTER":128.8313,"MEAN_ANOMALY":231.2926,"EPHEMERIS_TYPE":0,"CLASSIFICATION_TYPE":"U","NORAD_CAT_ID":47126,"ELEMENT_SET_NO":999,"REV_AT_EPOCH":29190,"BSTAR":0.0020820336,"MEAN_MOTION_DOT":0.00039367,"MEAN_MOTION_DDOT":0},{"OBJECT_NAME":"OBJECT B","OBJECT_ID":"2025-108B","EPOCH":"2026-03-09T22:57:20.569248","MEAN_MOTION":15.18732481,"ECCENTRICITY":0.00118477,"INCLINATION":97.4788,"RA_OF_ASC_NODE":145.8779,"ARG_OF_PERICENTER":0.6755,"MEAN_ANOMALY":359.4493,"EPHEMERIS_TYPE":0,"CLASSIFICATION_TYPE":"U","NORAD_CAT_ID":64088,"ELEMENT_SET_NO":999,"REV_AT_EPOCH":4430,"BSTAR":0.00058992219,"MEAN_MOTION_DOT":0.00012214,"MEAN_MOTION_DDOT":0}]
